TIANMU-1 20             
1 58661U 23208B   26204.28991271  .00008908  00000+0  27943-3 0  9996
2 58661  97.4465 321.4654 0007103 182.6416 177.4790 15.33259532142951
TIANMU-1 21             
1 58662U 23208C   26204.28796566  .00010841  00000+0  31460-3 0  9995
2 58662  97.4526 324.3032 0007437 175.4409 184.6904 15.35665856143101
TIANMU-1 22             
1 58663U 23208D   26204.27454218  .00008363  00000+0  27731-3 0  9992
2 58663  97.4519 320.6815 0003508 186.3931 173.7266 15.31512917142854
TIANMU-1 15             
1 58700U 24004A   26204.27329426  .00006078  00000+0  23223-3 0  9994
2 58700  97.4677  30.4654 0006741 196.2616 163.8408 15.26975649141283
TIANMU-1 16             
1 58701U 24004B   26204.32773999  .00005833  00000+0  22234-3 0  9998
2 58701  97.4625  29.7321 0005013 209.5471 150.5485 15.27079187141299
TIANMU-1 17             
1 58702U 24004C   26204.31323427  .00005779  00000+0  22035-3 0  9993
2 58702  97.4652  30.2158 0004423 214.6647 145.4304 15.27076728141281
TIANMU-1 18             
1 58703U 24004D   26204.28977796  .00005587  00000+0  21366-3 0  9997
2 58703  97.4670  30.4558 0004494 191.3578 168.7560 15.26989995141280
INSAT-3DS               
1 58990U 24033A   26204.10322530 -.00000151  00000+0  00000+0 0  9999
2 58990   0.0716 262.6385 0001241 214.7279 302.6816  1.00273101 47427
METEOR-M2 4             
1 59051U 24039A   26204.26884061  .00000007  00000+0  22857-4 0  9991
2 59051  98.7031 163.1175 0008190  68.7094 291.4958 14.22432774124399
GOES 19                 
1 60133U 24119A   26204.26530966 -.00000244  00000+0  00000+0 0  9990
2 60133   0.0202 124.3336 0000316  44.2664 152.7195  1.00272088  7327
MTG-S1                  
1 64723U 25143A   26204.25579576 -.00000001  00000+0  00000+0 0  9997
2 64723   0.5805 346.9323 0003171 255.6410 150.1867  1.00276001  3780
METOP-SGA1              
1 65159U 25172A   26204.14051407  .00000018  00000+0  27828-4 0  9998
2 65159  98.6622 263.1297 0001463  91.1000 269.0345 14.21503387 48898
FENGYUN 3H              
1 65815U 25219A   26204.26062004  .00000026  00000+0  32769-4 0  9996
2 65815  98.6770 144.3296 0000967  63.6721 296.4555 14.19925773 42505
