OBJECT_NAME,OBJECT_ID,EPOCH,MEAN_MOTION,ECCENTRICITY,INCLINATION,RA_OF_ASC_NODE,ARG_OF_PERICENTER,MEAN_ANOMALY,EPHEMERIS_TYPE,CLASSIFICATION_TYPE,NORAD_CAT_ID,ELEMENT_SET_NO,REV_AT_EPOCH,BSTAR,MEAN_MOTION_DOT,MEAN_MOTION_DDOT
TIANMU-1 20,2023-208B,2026-07-23T06:57:28.458144,15.33259532,.00071034,97.4465,321.4654,182.6416,177.4790,0,U,58661,999,14295,.27942701E-3,.8908E-4,0
TIANMU-1 21,2023-208C,2026-07-23T06:54:40.233024,15.35665856,.00074379,97.4526,324.3032,175.4409,184.6904,0,U,58662,999,14310,.31460116E-3,.10841E-3,0
TIANMU-1 22,2023-208D,2026-07-23T06:35:20.444352,15.31512917,.00035082,97.4519,320.6815,186.3931,173.7266,0,U,58663,999,14285,.27731022E-3,.8363E-4,0
TIANMU-1 15,2024-004A,2026-07-23T06:33:32.624064,15.26975649,.00067413,97.4677,30.4654,196.2616,163.8408,0,U,58700,999,14128,.23223274E-3,.6078E-4,0
TIANMU-1 16,2024-004B,2026-07-23T07:51:56.735136,15.27079187,.00050133,97.4625,29.7321,209.5471,150.5485,0,U,58701,999,14129,.22234358E-3,.5833E-4,0
TIANMU-1 17,2024-004C,2026-07-23T07:31:03.440928,15.27076728,.0004423,97.4652,30.2158,214.6647,145.4304,0,U,58702,999,14128,.22035151E-3,.5779E-4,0
TIANMU-1 18,2024-004D,2026-07-23T06:57:16.815744,15.26989995,.00044949,97.4670,30.4558,191.3578,168.7560,0,U,58703,999,14128,.21366467E-3,.5587E-4,0
INSAT-3DS,2024-033A,2026-07-23T02:28:38.665920,1.00273101,.00012412,0.0716,262.6385,214.7279,302.6816,0,U,58990,999,4742,0,-.151E-5,0
METEOR-M2 4,2024-039A,2026-07-23T06:27:07.828704,14.22432774,.00081904,98.7031,163.1175,68.7094,291.4958,0,U,59051,999,12439,.22856838E-4,.7E-7,0
GOES 19,2024-119A,2026-07-23T06:22:02.754624,1.00272088,.00003162,0.0202,124.3336,44.2664,152.7195,0,U,60133,999,732,0,-.244E-5,0
MTG-S1,2025-143A,2026-07-23T06:08:20.753664,1.00276001,.00031719,0.5805,346.9323,255.6410,150.1867,0,U,64723,999,378,0,-.1E-7,0
METOP-SGA1,2025-172A,2026-07-23T03:22:20.415648,14.21503387,.00014636,98.6622,263.1297,91.1000,269.0345,0,U,65159,999,4889,.27827764E-4,.18E-6,0
FENGYUN 3H,2025-219A,2026-07-23T06:15:17.571456,14.19925773,.00009676,98.6770,144.3296,63.6721,296.4555,0,U,65815,999,4250,.327695E-4,.26E-6,0
